{
"type": "FeatureCollection",
"name": "SELECT",
"crs": { "type": "name", "properties": { "name": "urn:ogc:def:crs:EPSG::4269" } },
"features": [
{ "type": "Feature", "properties": { "name": "Great Plains", "source": "Fenneman 1928" }, "geometry": { "type": "Polygon", "coordinates": [ [ [ -101.343894955594877, 32.473129271530617 ], [ -101.053131102635504, 32.434146880831889 ], [ -100.654869079985303, 32.480072021324993 ], [ -100.195388794250377, 32.468685150770469 ], [ -99.950485230351944, 32.402656554536954 ], [ -99.677711485811884, 32.277462005859419 ], [ -98.608139038146163, 32.033134460874024 ], [ -98.434745789186096, 32.046489715378435 ], [ -98.389366149591751, 32.167201995257415 ], [ -98.409782410675277, 32.266330719371254 ], [ -98.367835998199993, 32.370967865452414 ], [ -98.332855225660822, 32.440265654478303 ], [ -98.203018188609818, 32.512126922277609 ], [ -97.742996216727917, 32.624809265837044 ], [ -97.191459655562042, 32.608535767098047 ], [ -97.286003112579166, 32.222942352237503 ], [ -97.143455505468893, 31.694292068434084 ], [ -97.147010802493455, 31.545215607239591 ], [ -97.335342406432417, 31.182527541348843 ], [ -97.53015899588587, 30.553409577071278 ], [ -97.859893798359664, 30.014482499510638 ], [ -98.144920349765314, 29.73326301610841 ], [ -98.474647521247562, 29.601642608220843 ], [ -98.724235535180924, 29.563289642474412 ], [ -99.374938964382622, 29.384754181048773 ], [ -100.059295654581561, 29.301702498731423 ], [ -100.532020567825001, 29.333150864680327 ], [ -100.804046632069998, 29.249887466587118 ], [ -101.00942993092039, 29.373485564796887 ], [ -101.067733763234457, 29.473777772243199 ], [ -101.261810304114576, 29.526693343930692 ], [ -101.254966735840156, 29.628963469785166 ], [ -101.309310912392377, 29.581125260756242 ], [ -101.306243896359831, 29.652645111968795 ], [ -101.368789673131388, 29.65737342897387 ], [ -101.416488648777019, 29.745641707333082 ], [ -101.401664734472249, 29.770111084602686 ], [ -101.448806761666958, 29.76079177748662 ], [ -101.470855712150396, 29.788896561158502 ], [ -101.538734437493048, 29.763223649175146 ], [ -101.544342039852296, 29.810323715705941 ], [ -101.58187866124041, 29.765354155341718 ], [ -101.640060424541161, 29.75716400002473 ], [ -101.805603027746514, 29.780200959451196 ], [ -101.819496154636482, 29.814325332131691 ], [ -101.92462921267159, 29.788700103263423 ], [ -101.973724364964085, 29.818971634298158 ], [ -102.064407347658275, 29.784769056773921 ], [ -102.149017332794045, 29.803291321460375 ], [ -102.181747435316893, 29.847534178261721 ], [ -102.339134214928791, 29.868726730212142 ], [ -102.498863219466656, 30.145944594205066 ], [ -102.812530516696071, 30.533775330111414 ], [ -103.405601502107558, 30.783983230508017 ], [ -103.759323121245941, 30.881027221682874 ], [ -103.940277100244955, 30.981664657690043 ], [ -104.119956971222706, 31.134792328337333 ], [ -104.453483581027839, 31.51670837501926 ], [ -104.550376892024772, 31.691446304461099 ], [ -104.777313232207177, 31.902893065625136 ], [ -104.832138060749543, 31.992113112419311 ], [ -105.120208741254487, 33.423179627165567 ], [ -105.264854432411823, 33.729637145252617 ], [ -105.595436097409845, 34.15705108750997 ], [ -105.640342712248525, 34.254425048998947 ], [ -105.631881713190438, 34.398628235412041 ], [ -105.557556152267722, 34.58417129560403 ], [ -105.544013976176814, 34.717582701466966 ], [ -105.546089171959153, 34.888198852713622 ], [ -105.634544371887827, 35.18835830707404 ], [ -105.62882232572845, 35.26377487209944 ], [ -105.414581297896234, 35.419292450418446 ], [ -105.229377747847167, 35.49116134725795 ], [ -105.204223632540135, 35.553546906202143 ], [ -105.187309264706712, 35.77344512903673 ], [ -105.228332518865543, 35.959049225349524 ], [ -105.185371398456525, 36.610317230100883 ], [ -105.038948058912055, 37.120197295887529 ], [ -105.033073425363227, 37.216426849263605 ], [ -105.263175964101777, 37.622219085430821 ], [ -105.295700073179347, 37.786045073959713 ], [ -105.268005371373377, 37.847084044869959 ], [ -105.202957153218236, 37.883586883102005 ], [ -104.987693786729935, 37.773792267357116 ], [ -104.923370361124384, 37.779735564881129 ], [ -104.890342712541894, 37.850650787408142 ], [ -104.935867309685094, 38.008941650440846 ], [ -105.329841614625394, 38.390579224222947 ], [ -105.371330260784148, 38.501029968831538 ], [ -105.237281799038101, 38.566444396761554 ], [ -104.844436644833152, 38.615821839243601 ], [ -104.78458404585821, 38.801979064567263 ], [ -104.982116699337638, 39.330291748373199 ], [ -105.202331542590812, 39.771942138031157 ], [ -105.270942687560918, 40.064674378104428 ], [ -105.211311340370358, 40.643779754792376 ], [ -105.105079649808062, 41.004489896193355 ], [ -105.104537966534096, 41.103622437955948 ], [ -105.208396911558623, 41.708400725460521 ], [ -105.195510863774672, 42.09455108453033 ], [ -105.371688841402388, 42.422710416061435 ], [ -105.099791249716262, 42.614188025139789 ], [ -105.37168883936431, 42.422710419431844 ], [ -105.557159421611985, 42.637161255206969 ], [ -105.71119689776414, 42.723056791082961 ], [ -106.043403622806736, 42.825168606415836 ], [ -106.406959529962265, 42.727203370479153 ], [ -106.637252804759001, 42.850238797728572 ], [ -106.968597415416028, 43.343166354870135 ], [ -106.842369082111105, 43.428985594146681 ], [ -106.764106750446899, 43.547595978006029 ], [ -106.704513550807661, 43.810050967516332 ], [ -106.728477475580803, 44.159755706314208 ], [ -106.851066590871213, 44.448261260113554 ], [ -107.055053711944922, 44.687938690297166 ], [ -107.714065547971117, 45.109390260366986 ], [ -108.255187988962334, 45.324481963291319 ], [ -109.388702394669735, 45.452007293250311 ], [ -110.042083742017468, 45.680187228895527 ], [ -110.138511654221773, 45.744361875020594 ], [ -110.126892091195813, 45.987373351999778 ], [ -110.269989015976208, 46.468765262508505 ], [ -110.090217591623329, 46.638378143378901 ], [ -110.052261350163008, 46.714767455380446 ], [ -110.107086183098801, 46.81261062282956 ], [ -110.412864685930799, 47.019104003332018 ], [ -110.645195010869045, 47.116638182075917 ], [ -111.600349429982103, 47.194503783566056 ], [ -112.422622676965304, 47.430061341578529 ], [ -112.672340390108587, 48.089397427953052 ], [ -112.726387025160193, 48.160682679983793 ], [ -112.985244749211958, 48.335346219621059 ], [ -113.183113100796376, 48.407283785021576 ], [ -113.513160702238864, 48.865020748831135 ], [ -113.553619384402822, 48.997192384043068 ], [ -103.002014158951738, 49.003948211429069 ], [ -102.280334475857316, 48.522804256441319 ], [ -101.985412598456179, 48.27695465471821 ], [ -101.318473816173139, 48.126598358572998 ], [ -100.973449706378048, 48.004825592210594 ], [ -98.87667846591583, 46.987583164259881 ], [ -98.791809084284125, 46.760326389255177 ], [ -98.784347537241942, 46.389484406710757 ], [ -98.887664795934114, 45.885707855688729 ], [ -98.985458371169074, 45.663352965228654 ], [ -99.056991578107514, 44.985584256481694 ], [ -98.965232849382872, 44.344280244241304 ], [ -98.931335445983621, 44.196117397198513 ], [ -98.58498382560154, 43.579307554443531 ], [ -97.788429263459889, 42.544692994591777 ], [ -97.3895797717595, 41.886016844790646 ], [ -97.083641054554505, 40.971347809015867 ], [ -97.097908022637512, 40.539192202319079 ], [ -96.996994018556819, 40.255958556183707 ], [ -97.103324890851169, 39.870109557065035 ], [ -97.173927308101923, 39.772357939761235 ], [ -97.168968201157426, 39.423385620874811 ], [ -97.133499144803494, 39.260143279763533 ], [ -97.696846007499829, 38.575969696049647 ], [ -97.748985289533636, 38.474761962534565 ], [ -97.791458129271234, 38.243907929099926 ], [ -97.92308044534083, 38.186862946217062 ], [ -98.013458252486615, 38.101238251076204 ], [ -98.016586302683024, 38.032356262488875 ], [ -97.786697387824091, 37.792400360790587 ], [ -97.737052916974278, 37.682247161404419 ], [ -97.713951111385484, 37.587917328994649 ], [ -97.782897949058892, 37.424118040947661 ], [ -97.944572448005502, 37.309196473017494 ], [ -98.459373474839026, 37.103652953445582 ], [ -98.754455565259391, 36.941040040143648 ], [ -99.096839904189707, 36.874542237000995 ], [ -99.223060608012176, 36.883422851440656 ], [ -99.650131225382665, 36.682407378846627 ], [ -99.7387847903166, 36.424198150419379 ], [ -99.87950134286227, 36.249530791137431 ], [ -100.156387328542891, 36.029525756504917 ], [ -100.188644408490788, 35.938579559432782 ], [ -100.222877502243335, 35.953025817954327 ], [ -100.237771107864134, 35.959306743492156 ], [ -100.188644407948757, 35.93857955863718 ], [ -100.023773190683286, 35.610279081386786 ], [ -100.020118713369229, 35.512699124133292 ], [ -100.107597350771357, 35.179000855227748 ], [ -100.316505431287482, 34.776309964925566 ], [ -100.662055971676111, 34.570983884141974 ], [ -100.853378297924593, 34.37774276989861 ], [ -100.83868408323994, 34.267745970553605 ], [ -100.625602723335888, 33.902835843065503 ], [ -100.62985992703976, 33.821048735491516 ], [ -100.703727722439538, 33.746784211980831 ], [ -101.033065797703301, 33.585891722558792 ], [ -101.183761596223619, 33.443183898216077 ], [ -101.260543824675239, 33.14686965787935 ], [ -101.439407349741415, 32.729957580297452 ], [ -101.397964478456984, 32.544143679067041 ], [ -101.343894955594877, 32.473129271530617 ] ], [ [ -104.89647192997235, 38.101017676064316 ], [ -104.827384948323825, 38.080123901074231 ], [ -104.819481301620456, 38.079095107470536 ], [ -104.89647192997235, 38.101017676064316 ] ], [ [ -104.705436706659341, 38.064224242810241 ], [ -104.676491126607615, 38.060600902701545 ], [ -104.740273435669621, 38.068770942038739 ], [ -104.705436706659341, 38.064224242810241 ] ], [ [ -104.571243286186615, 38.047386169511562 ], [ -104.5583585247728, 38.040348649857215 ], [ -104.616627948122243, 38.053086130210986 ], [ -104.571243286186615, 38.047386169511562 ] ], [ [ -104.484939575460103, 38.000190734224525 ], [ -104.430810894741597, 37.959954888014643 ], [ -104.557882092422901, 38.040088312334689 ], [ -104.484939575460103, 38.000190734224525 ] ], [ [ -104.290222167347494, 37.874317169026845 ], [ -104.210461569085766, 37.831689632647858 ], [ -104.34006842351485, 37.903226668700761 ], [ -104.290222167347494, 37.874317169026845 ] ], [ [ -104.058326720868664, 37.796459197760306 ], [ -104.001813962919584, 37.793916149618184 ], [ -104.074869315698422, 37.799780831694633 ], [ -104.058326720868664, 37.796459197760306 ] ], [ [ -103.966621399390434, 37.792335510095917 ], [ -103.894191513606557, 37.790356040402372 ], [ -103.971002637938241, 37.792530807400233 ], [ -103.966621399390434, 37.792335510095917 ] ], [ [ -103.844694591094921, 37.788994615491156 ], [ -103.716796875508777, 37.789291381387649 ], [ -103.659515157455687, 37.782443286024176 ], [ -103.844694591094921, 37.788994615491156 ] ], [ [ -103.597781719057465, 37.775035483812587 ], [ -103.521789550376326, 37.767189025287628 ], [ -103.418661941400515, 37.760503991365759 ], [ -103.597781719057465, 37.775035483812587 ] ], [ [ -103.29729461708024, 37.742752074675018 ], [ -103.205033083855938, 37.722732621388644 ], [ -103.406888916485443, 37.759581555812488 ], [ -103.29729461708024, 37.742752074675018 ] ], [ [ -103.175206437875417, 37.716009684877761 ], [ -103.0840225224634, 37.683803557701843 ], [ -103.049219077293927, 37.670187311004192 ], [ -103.175206437875417, 37.716009684877761 ] ], [ [ -103.001418842382861, 37.65106553161079 ], [ -102.870216370251228, 37.597972869772448 ], [ -102.825210781286955, 37.583116458199513 ], [ -103.001418842382861, 37.65106553161079 ] ], [ [ -102.749628613236723, 37.558142639842593 ], [ -102.70657348649091, 37.552711484008888 ], [ -102.584007263664262, 37.555938721179189 ], [ -102.749628613236723, 37.558142639842593 ] ], [ [ -102.14998973712261, 37.794616000871414 ], [ -102.13895416365429, 37.811405179007153 ], [ -102.090646350634486, 37.894364370526347 ], [ -102.14998973712261, 37.794616000871414 ] ], [ [ -102.09234836698171, 37.944096299641551 ], [ -102.106315610103735, 38.04320144666444 ], [ -102.102838080135299, 38.066240759384755 ], [ -102.09234836698171, 37.944096299641551 ] ], [ [ -102.094268799344889, 38.151702882903692 ], [ -102.102827274012625, 38.17002637041508 ], [ -102.093197269366698, 38.149406923431428 ], [ -102.094268799344889, 38.151702882903692 ] ], [ [ -102.181163546848296, 38.29794738850098 ], [ -102.207794186462849, 38.326667782729878 ], [ -102.219920374070639, 38.344341420329172 ], [ -102.181163546848296, 38.29794738850098 ] ], [ [ -102.44302023522944, 38.576723643990853 ], [ -102.469627378413819, 38.604206084466249 ], [ -102.568069340409096, 38.669382722876861 ], [ -102.44302023522944, 38.576723643990853 ] ], [ [ -102.692298887251624, 38.801448820021875 ], [ -102.760009762708975, 38.876483918554264 ], [ -102.856147768816285, 38.9137573260289 ], [ -102.863486758211295, 38.916600307974427 ], [ -102.76000976498257, 38.876483917051459 ], [ -102.692298887251624, 38.801448820021875 ] ], [ [ -102.978363036995802, 38.927837373723683 ], [ -103.018015063635261, 38.941927132186748 ], [ -102.970952071105202, 38.927395189431074 ], [ -102.978363036995802, 38.927837373723683 ] ], [ [ -103.09315316671703, 38.96861600213753 ], [ -103.263198852760254, 39.074344636677893 ], [ -103.336269820180178, 39.117280899234913 ], [ -103.208061218335985, 39.034130095934948 ], [ -103.107971191285344, 38.973873137937971 ], [ -103.09315316671703, 38.96861600213753 ] ], [ [ -103.418635744938129, 39.165217417803795 ], [ -103.527061459934657, 39.226108551702318 ], [ -103.535377500219766, 39.231060031133865 ], [ -103.627243040310645, 39.285717010175368 ], [ -103.630104064963277, 39.287425995044408 ], [ -103.418635744938129, 39.165217417803795 ] ], [ [ -103.594467162753318, 39.458038327788252 ], [ -103.584939001997682, 39.471330058192535 ], [ -103.601208402737072, 39.448625710446684 ], [ -103.594467162753318, 39.458038327788252 ] ], [ [ -103.53033447145036, 39.532585142737517 ], [ -103.496788012829299, 39.566300065326708 ], [ -103.552963104180037, 39.509814803344256 ], [ -103.53033447145036, 39.532585142737517 ] ], [ [ -103.377285504183931, 39.651661534792076 ], [ -103.320884701525912, 39.738002778993334 ], [ -103.320814676447185, 39.739535607508955 ], [ -103.377285504183931, 39.651661534792076 ] ], [ [ -103.316772459119463, 39.830703734396813 ], [ -103.316561202236883, 39.835491836719271 ], [ -103.317843043722959, 39.806545739825587 ], [ -103.316772459119463, 39.830703734396813 ] ], [ [ -103.30420684628676, 40.007164003463117 ], [ -103.285699921745703, 40.059606635650205 ], [ -103.315686311668969, 39.974590135135486 ], [ -103.30420684628676, 40.007164003463117 ] ], [ [ -103.285607786684196, 40.05986642301999 ], [ -103.285652161085608, 40.059741973880989 ], [ -103.285652161577346, 40.059741972487558 ], [ -103.285607786684196, 40.05986642301999 ] ], [ [ -103.239374299409732, 40.180116137866946 ], [ -103.187889100079929, 40.274497983141494 ], [ -103.087776181707312, 40.375778198512343 ], [ -103.031032853498573, 40.434449105660086 ], [ -103.239374299409732, 40.180116137866946 ] ], [ [ -102.886465967336022, 40.559760658766365 ], [ -102.817314145676292, 40.629657744220211 ], [ -102.729529593417482, 40.695845233331056 ], [ -102.886465967336022, 40.559760658766365 ] ], [ [ -102.683152999695707, 40.738319918040176 ], [ -102.646118165970861, 40.7773361197508 ], [ -102.646118165909272, 40.77733611983497 ], [ -102.674171448109249, 40.747787475468641 ], [ -102.683152999695707, 40.738319918040176 ] ], [ [ -102.574394228601193, 40.931186677536374 ], [ -102.62955833758808, 40.954373382091589 ], [ -102.574394228816416, 40.931186676150389 ], [ -102.574394228601193, 40.931186677536374 ] ], [ [ -102.644726574391612, 40.959962909728077 ], [ -102.749160767439108, 40.965751650238083 ], [ -102.770577893453904, 40.963933561099729 ], [ -102.644726574391612, 40.959962909728077 ] ], [ [ -103.125465395183554, 40.935039521973067 ], [ -103.243820187770083, 40.927871706929871 ], [ -103.353965757856287, 40.921092988841295 ], [ -103.361877438874231, 40.919418336503604 ], [ -103.434044050428341, 40.904129901021328 ], [ -103.125465395183554, 40.935039521973067 ] ], [ [ -103.711204530539874, 40.904308321951724 ], [ -103.79847677469607, 40.910057767507148 ], [ -103.67482969933414, 40.901885565970844 ], [ -103.711204530539874, 40.904308321951724 ] ], [ [ -103.84312163238441, 40.91299098028292 ], [ -103.947097778291067, 40.923633574982318 ], [ -104.06439971668604, 40.937488558776238 ], [ -104.105041804995764, 40.942261930689519 ], [ -103.84312163238441, 40.91299098028292 ] ], [ [ -104.244697567876486, 40.973953247716516 ], [ -104.255895673094969, 40.975418603785194 ], [ -104.19908504593873, 40.963525243973173 ], [ -104.244697567876486, 40.973953247716516 ] ], [ [ -104.348312030702289, 40.987476821091683 ], [ -104.425849912270209, 40.997570038519861 ], [ -104.52723693929147, 40.978786468763232 ], [ -104.598617554375437, 40.965507508446521 ], [ -104.643875120449536, 40.964286805623075 ], [ -104.711424376853458, 40.962420082876037 ], [ -104.598617553857707, 40.965507506876364 ], [ -104.425849915125042, 40.997570037761577 ], [ -104.348312030702289, 40.987476821091683 ] ], [ [ -104.801994322539031, 40.959903718512464 ], [ -104.881271362462741, 40.957405091462228 ], [ -104.999938964978611, 40.953571318781862 ], [ -105.020080567699836, 40.952915192701205 ], [ -105.07304315345894, 40.950678491346338 ], [ -104.801994322539031, 40.959903718512464 ] ], [ [ -104.977958676865924, 42.717399594307537 ], [ -104.963764213721021, 42.735096917305974 ], [ -104.99234249493847, 42.704181036327576 ], [ -104.977958676865924, 42.717399594307537 ] ], [ [ -104.948366402701666, 42.754275456545301 ], [ -104.824974059018061, 42.838287354147567 ], [ -104.733072851924021, 42.847162117514806 ], [ -104.824974061789078, 42.838287356258618 ], [ -104.919517517050792, 42.790199278540875 ], [ -104.948366402701666, 42.754275456545301 ] ], [ [ -104.602127077059123, 42.859718321644763 ], [ -104.602127078575947, 42.859718321967406 ], [ -104.613902816143039, 42.858593887869112 ], [ -104.602127077059123, 42.859718321644763 ] ], [ [ -104.321815493591885, 42.822067257866422 ], [ -104.30880785686999, 42.822381687444789 ], [ -104.35319570649844, 42.824584616902847 ], [ -104.321815493591885, 42.822067257866422 ] ], [ [ -104.199661256259489, 42.825031281165323 ], [ -104.180312937252467, 42.824853619992957 ], [ -104.255889637762181, 42.82366548966499 ], [ -104.199661256259489, 42.825031281165323 ] ], [ [ -104.050788880818061, 42.823596955041054 ], [ -104.022631624475295, 42.820075486691167 ], [ -104.108151701269151, 42.824155264924073 ], [ -104.050788880818061, 42.823596955041054 ] ], [ [ -103.834907530668872, 42.789871213230072 ], [ -103.822363867595712, 42.787675865560054 ], [ -103.89181171555839, 42.799053892270706 ], [ -103.834907530668872, 42.789871213230072 ] ], [ [ -103.693069455707615, 42.764987944934347 ], [ -103.649098736960866, 42.757224120789637 ], [ -103.719269935893081, 42.769586527106782 ], [ -103.693069455707615, 42.764987944934347 ] ], [ [ -103.562703130925883, 42.744654802275093 ], [ -103.422203066543787, 42.729084017158733 ], [ -103.331520079629328, 42.724506378503627 ], [ -103.289452034529432, 42.722463601484883 ], [ -103.562703130925883, 42.744654802275093 ] ], [ [ -102.85214233192589, 42.775787356091513 ], [ -102.810697524919917, 42.784390047450479 ], [ -102.904363991826287, 42.76491561113837 ], [ -102.85214233192589, 42.775787356091513 ] ], [ [ -102.739418032186009, 42.809410095695853 ], [ -102.668862960676108, 42.83580648825329 ], [ -102.792879241612539, 42.789486458658075 ], [ -102.739418032186009, 42.809410095695853 ] ], [ [ -102.529975893417827, 42.901428222106077 ], [ -102.494087001225935, 42.919697618550742 ], [ -102.584851207020577, 42.873438564137487 ], [ -102.529975893417827, 42.901428222106077 ] ], [ [ -102.435943601827987, 42.958255768224682 ], [ -102.397957465821435, 42.987762474206519 ], [ -102.46795104871822, 42.933366375370269 ], [ -102.435943601827987, 42.958255768224682 ] ], [ [ -102.243270873771195, 43.067459105213516 ], [ -102.227600098682473, 43.074806215328678 ], [ -102.308501464888366, 43.036828817411752 ], [ -102.243270873771195, 43.067459105213516 ] ], [ [ -102.128257748569396, 43.097793577123952 ], [ -102.080883890360383, 43.108702520697939 ], [ -102.210026465178373, 43.078872673220459 ], [ -102.128257748569396, 43.097793577123952 ] ], [ [ -101.952102658276132, 43.138313293201698 ], [ -101.939464128245177, 43.141490446799267 ], [ -101.980252209801719, 43.131852264746172 ], [ -101.952102658276132, 43.138313293201698 ] ], [ [ -101.846977671324467, 43.164702594553873 ], [ -101.736854553007504, 43.192264555915486 ], [ -101.698096879791549, 43.193516906325371 ], [ -101.846977671324467, 43.164702594553873 ] ], [ [ -100.894033373273913, 43.135125840456361 ], [ -100.791122435525736, 43.1285781829705 ], [ -100.683705224546515, 43.124623700634331 ], [ -100.894033373273913, 43.135125840456361 ] ], [ [ -100.557533263280291, 43.122951505701984 ], [ -100.501468480825011, 43.127185320250625 ], [ -100.573694101817736, 43.121720986786869 ], [ -100.557533263280291, 43.122951505701984 ] ], [ [ -100.313011171449034, 43.141284941522507 ], [ -100.302910773694123, 43.142039263536994 ], [ -100.37029284793509, 43.137021072854338 ], [ -100.313011171449034, 43.141284941522507 ] ], [ [ -100.19368743671815, 43.122348785446533 ], [ -100.094735822595609, 43.103365801595821 ], [ -100.225606921768872, 43.12843697733372 ], [ -100.19368743671815, 43.122348785446533 ] ], [ [ -100.073758628966061, 43.099340867016267 ], [ -99.823478698069039, 43.011215207594034 ], [ -99.705069629551332, 42.976633607225196 ], [ -99.823478700632933, 43.011215211672088 ], [ -100.050712582731137, 43.094905857030881 ], [ -100.073758628966061, 43.099340867016267 ] ], [ [ -99.203603040336603, 42.850395314864272 ], [ -99.162361148028992, 42.840496064737309 ], [ -99.153088486536262, 42.838232143426829 ], [ -99.203603040336603, 42.850395314864272 ] ], [ [ -98.713653563365426, 42.734325406916398 ], [ -98.703022594285102, 42.731171055299804 ], [ -98.756486354604149, 42.74417541200544 ], [ -98.713653563365426, 42.734325406916398 ] ], [ [ -98.584182740248622, 42.695854183952783 ], [ -98.511968443401884, 42.674289282047496 ], [ -98.669084344322769, 42.721087241316667 ], [ -98.584182740248622, 42.695854183952783 ] ], [ [ -98.238227846727185, 42.609279630000998 ], [ -98.148374120135315, 42.590325335885211 ], [ -98.344785842980116, 42.631647937194522 ], [ -98.238227846727185, 42.609279630000998 ] ], [ [ -98.111623771407977, 42.582566197878215 ], [ -97.885444638735734, 42.539012906090072 ], [ -97.848941352462319, 42.529836933734437 ], [ -97.885444643542158, 42.539012908949488 ], [ -98.111623771407977, 42.582566197878215 ] ], [ [ -97.150398254937613, 40.486309050683126 ], [ -97.150398253749572, 40.486309051123435 ], [ -97.140671017069437, 40.491311753184625 ], [ -97.150398254937613, 40.486309050683126 ] ], [ [ -97.280540467824423, 40.438003542420461 ], [ -97.295079503334605, 40.433414147702742 ], [ -97.213280161030937, 40.462985856530565 ], [ -97.280540467824423, 40.438003542420461 ] ], [ [ -97.454528806618725, 40.382984163202558 ], [ -97.51692199915874, 40.367145538854132 ], [ -97.628601075863344, 40.33869171142593 ], [ -97.6319323385584, 40.337842003573357 ], [ -97.454528806618725, 40.382984163202558 ] ], [ [ -97.741592404729246, 40.313648225654589 ], [ -97.785306168864224, 40.30432619284673 ], [ -97.708122701514455, 40.32075141278893 ], [ -97.741592404729246, 40.313648225654589 ] ], [ [ -98.08710479547085, 40.262504578207853 ], [ -98.204315184527985, 40.255657198115884 ], [ -98.26856231863762, 40.251861575082536 ], [ -98.31463786609801, 40.249979043443751 ], [ -98.08710479547085, 40.262504578207853 ] ], [ [ -98.672569276679255, 40.254596712768056 ], [ -98.689291398137456, 40.256376403606652 ], [ -98.622138799957568, 40.249200646414231 ], [ -98.672569276679255, 40.254596712768056 ] ], [ [ -98.881368229218026, 40.266689094684047 ], [ -98.920631409152236, 40.268302919686406 ], [ -98.958885407242747, 40.27184464043048 ], [ -98.881368229218026, 40.266689094684047 ] ], [ [ -99.370033263409113, 40.328075411213213 ], [ -99.459270930762912, 40.340111475490446 ], [ -99.346202240657206, 40.324848881642623 ], [ -99.370033263409113, 40.328075411213213 ] ], [ [ -99.595703123480348, 40.376979829579462 ], [ -99.621943291266533, 40.38527710212194 ], [ -99.537706451874456, 40.360894516183038 ], [ -99.595703123480348, 40.376979829579462 ] ], [ [ -99.810803116918265, 40.458005877113834 ], [ -99.918914797292416, 40.441017149832049 ], [ -99.929093417206815, 40.438770459579573 ], [ -99.810803116918265, 40.458005877113834 ] ], [ [ -99.984088657981459, 40.419160789120255 ], [ -100.059577944099132, 40.377906800364279 ], [ -100.093154909034553, 40.330436708122299 ], [ -100.12070465301241, 40.291439058062906 ], [ -100.27041070961377, 40.009385643608432 ], [ -100.120704650152547, 40.291439055528258 ], [ -100.059577941488186, 40.377906798169526 ], [ -99.984088657981459, 40.419160789120255 ] ], [ [ -100.318769615358249, 39.927865790456295 ], [ -100.373313905649766, 39.835704804075426 ], [ -100.381209573113125, 39.822341656235572 ], [ -100.318769615358249, 39.927865790456295 ] ], [ [ -100.467567445562338, 39.671123503270444 ], [ -100.479855459101813, 39.647551831441064 ], [ -100.451896994617073, 39.701166391799269 ], [ -100.467567445562338, 39.671123503270444 ] ], [ [ -100.508279947652568, 39.615981492000905 ], [ -100.595085146615361, 39.538253785231198 ], [ -100.600119116784285, 39.533467323507459 ], [ -100.508279947652568, 39.615981492000905 ] ], [ [ -100.753776550469567, 39.389598848668726 ], [ -100.78434042482013, 39.361478714760544 ], [ -100.703959647749443, 39.435352631837901 ], [ -100.753776550469567, 39.389598848668726 ] ], [ [ -100.824638369614036, 39.318637849030132 ], [ -100.859727984534473, 39.273898459616049 ], [ -100.813570337951973, 39.332739989207361 ], [ -100.824638369614036, 39.318637849030132 ] ], [ [ -100.975709225372867, 39.153053835399412 ], [ -101.043136599063914, 39.0673789982011 ], [ -101.027966120727214, 38.966454300611431 ], [ -101.043136597573266, 39.067378998490533 ], [ -100.975709225372867, 39.153053835399412 ] ], [ [ -101.023284912803177, 38.935260771158497 ], [ -101.020772088801706, 38.931629924237072 ], [ -101.023284913101179, 38.935260773144293 ], [ -101.023284912803177, 38.935260771158497 ] ], [ [ -100.993667175569414, 38.892443659499563 ], [ -100.958419802259911, 38.84148025251649 ], [ -100.922529486968372, 38.785178125043757 ], [ -100.993667175569414, 38.892443659499563 ] ], [ [ -100.546623231028946, 38.448314664722822 ], [ -100.540270032364305, 38.441377041192091 ], [ -100.579458066784468, 38.474416681153713 ], [ -100.546623231028946, 38.448314664722822 ] ], [ [ -100.360420226709536, 38.26498412823009 ], [ -100.320431457247849, 38.219685650202898 ], [ -100.365778238386298, 38.269785074525387 ], [ -100.360420226709536, 38.26498412823009 ] ], [ [ -100.287422180691237, 38.182247162536818 ], [ -100.283761344648028, 38.176383851461594 ], [ -100.310434235572586, 38.2083494087221 ], [ -100.287422180691237, 38.182247162536818 ] ], [ [ -100.216148377257682, 38.056957243829856 ], [ -100.205762936673793, 38.032283507330106 ], [ -100.224982555354089, 38.077926672185818 ], [ -100.216148377257682, 38.056957243829856 ] ], [ [ -100.169395448077836, 37.898998259215972 ], [ -100.169149901033009, 37.89593370499545 ], [ -100.172162168033751, 37.913785418311868 ], [ -100.169395448077836, 37.898998259215972 ] ], [ [ -100.171447756770107, 37.792171475314412 ], [ -100.179723964960317, 37.724157702440515 ], [ -100.166845844348359, 37.829975228238425 ], [ -100.171447756770107, 37.792171475314412 ] ], [ [ -100.230766298782655, 37.631599426977971 ], [ -100.234136145615125, 37.626953118657873 ], [ -100.205224215274711, 37.666566682126771 ], [ -100.230766298782655, 37.631599426977971 ] ], [ [ -100.359111387890394, 37.451005579866937 ], [ -100.438957216236645, 37.32473373285378 ], [ -100.441332846665745, 37.318512313091055 ], [ -100.359111387890394, 37.451005579866937 ] ], [ [ -100.55268097047724, 37.049739838970943 ], [ -100.564126493605144, 37.015836972400422 ], [ -100.535230549648276, 37.101369350871636 ], [ -100.55268097047724, 37.049739838970943 ] ], [ [ -100.569992785714533, 36.987220826622419 ], [ -100.579093935947597, 36.881954194788008 ], [ -100.576967067189884, 36.873722781539847 ], [ -100.569992785714533, 36.987220826622419 ] ], [ [ -100.530952455312416, 36.695697784643393 ], [ -100.518376901469722, 36.647553669403067 ], [ -100.534876197568039, 36.710693043386748 ], [ -100.530952455312416, 36.695697784643393 ] ], [ [ -100.4913711567539, 36.518592836230859 ], [ -100.490401443993207, 36.513617292500889 ], [ -100.498997898792581, 36.557661878591972 ], [ -100.4913711567539, 36.518592836230859 ] ], [ [ -100.451126100958462, 36.435207369478846 ], [ -100.441819358039353, 36.418636027535598 ], [ -100.460122636720655, 36.451205989824331 ], [ -100.451126100958462, 36.435207369478846 ] ], [ [ -100.428776506352023, 36.382952581760101 ], [ -100.389732362919162, 36.165580748760405 ], [ -100.36761961562911, 36.107375273608248 ], [ -100.389732361958451, 36.165580750352127 ], [ -100.399986266613837, 36.26078033448271 ], [ -100.420814514842633, 36.349205016150449 ], [ -100.428776506352023, 36.382952581760101 ] ], [ [ -100.31082153261562, 36.007167814632275 ], [ -100.30520442776016, 36.003305971905597 ], [ -100.315918413070591, 36.010667805824788 ], [ -100.31082153261562, 36.007167814632275 ] ], [ [ -102.538665770409764, 31.309158326206873 ], [ -102.44970918243213, 31.353610724763659 ], [ -102.565535169319205, 31.295785720176919 ], [ -102.538665770409764, 31.309158326206873 ] ], [ [ -102.441491965480509, 31.357728166098628 ], [ -102.270317076214511, 31.450498579973956 ], [ -102.207880647287681, 31.487994492320222 ], [ -102.441491965480509, 31.357728166098628 ] ], [ [ -102.09730529880386, 31.5529632572343 ], [ -102.043056413137052, 31.585261083239565 ], [ -102.165219781621573, 31.513081712248127 ], [ -102.09730529880386, 31.5529632572343 ] ], [ [ -101.971069484247622, 31.630032836079188 ], [ -101.842773436127601, 31.712993621327023 ], [ -101.800581648591262, 31.741171258685746 ], [ -101.971069484247622, 31.630032836079188 ] ], [ [ -101.720433064669848, 31.796645338108693 ], [ -101.760032656609155, 31.768831255170525 ], [ -101.769253844706185, 31.762348205379013 ], [ -101.760032654761801, 31.768831253212582 ], [ -101.720433064669848, 31.796645338108693 ] ], [ [ -101.612130709228865, 31.874403076553619 ], [ -101.46212005626839, 32.022315978928376 ], [ -101.443147848242418, 32.042019753051264 ], [ -101.612130709228865, 31.874403076553619 ] ], [ [ -101.331962583407162, 32.146011349430744 ], [ -101.331962583412434, 32.146011349426907 ], [ -101.331908295528279, 32.145892279049995 ], [ -101.331962583407162, 32.146011349430744 ] ], [ [ -101.335670472545488, 32.154136659982399 ], [ -101.335670471662908, 32.154136658048337 ], [ -101.313788690414142, 32.198870413660337 ], [ -101.335670472545488, 32.154136659982399 ] ], [ [ -101.264076232411739, 32.281452178132604 ], [ -101.267738342486254, 32.359767913432137 ], [ -101.269887531180046, 32.364323708149684 ], [ -101.264076234160697, 32.281452178334654 ], [ -101.297607424427184, 32.228664397040966 ], [ -101.300526569263852, 32.22406626478304 ], [ -101.264076232411739, 32.281452178132604 ] ], [ [ -103.510780333784993, 30.8778209695081 ], [ -103.510780334679168, 30.877820968492124 ], [ -103.513719426999302, 30.842372431706728 ], [ -103.510780333784993, 30.8778209695081 ] ], [ [ -103.438644409087615, 31.026889802338516 ], [ -103.363576917776115, 31.091965096773855 ], [ -103.455966970107667, 30.991131164775474 ], [ -103.438644409087615, 31.026889802338516 ] ], [ [ -103.266827573109254, 31.09901332030384 ], [ -103.330162048001412, 31.105018617058153 ], [ -103.337626303684502, 31.105723229601892 ], [ -103.330162049307859, 31.105018616244919 ], [ -103.266827573109254, 31.09901332030384 ] ], [ [ -103.123458863214481, 31.113494873235982 ], [ -103.123458861285215, 31.113494873874203 ], [ -103.171068635733519, 31.104971490821764 ], [ -103.123458863214481, 31.113494873235982 ] ], [ [ -102.919029235616478, 31.149394989945485 ], [ -102.919029234733671, 31.149394990309222 ], [ -102.930787641247093, 31.147361881292539 ], [ -102.919029235616478, 31.149394989945485 ] ], [ [ -102.731069549823602, 31.218407707816755 ], [ -102.772422790448857, 31.20085525458428 ], [ -102.80563923504512, 31.189209944534646 ], [ -102.772422790236135, 31.200855253985118 ], [ -102.731069549823602, 31.218407707816755 ] ], [ [ -102.722297668111821, 31.222133636831437 ], [ -102.727892291902066, 31.227644894474892 ], [ -102.722297668453393, 31.222133636686486 ], [ -102.722297668111821, 31.222133636831437 ] ], [ [ -101.257583617393678, 32.068138121923909 ], [ -101.264046642477652, 32.070452863310685 ], [ -101.25452743310008, 32.067043710947665 ], [ -101.257583617393678, 32.068138121923909 ] ], [ [ -101.148803711181671, 32.035572052001569 ], [ -101.040560345019387, 32.000308998036253 ], [ -101.185774821043864, 32.046184556553079 ], [ -101.148803711181671, 32.035572052001569 ] ], [ [ -100.862152099999761, 31.953439712196651 ], [ -100.763046739139369, 31.922261717268249 ], [ -100.945013815546773, 31.972798057889896 ], [ -100.862152099999761, 31.953439712196651 ] ], [ [ -100.674789427640093, 31.890192032333076 ], [ -100.72113260372447, 31.907032180686592 ], [ -100.664721327653709, 31.886611950400734 ], [ -100.674789427640093, 31.890192032333076 ] ], [ [ -100.563621521174611, 31.850622177945397 ], [ -100.634815340700612, 31.875966976673389 ], [ -100.560505351924732, 31.849513031948327 ], [ -100.563621521174611, 31.850622177945397 ] ], [ [ -100.370918273461442, 31.776878356200754 ], [ -100.370918274087245, 31.776878357035539 ], [ -100.437445180392672, 31.80172078206321 ], [ -100.370918273461442, 31.776878356200754 ] ], [ [ -100.28121948298498, 31.729473114366126 ], [ -100.364092446794572, 31.773831776992147 ], [ -100.273313885118085, 31.725236539978336 ], [ -100.28121948298498, 31.729473114366126 ] ], [ [ -100.21435546902029, 31.656139373894074 ], [ -100.32591247488449, 31.621210099089634 ], [ -100.371112104882101, 31.611778569378366 ], [ -100.260482787054769, 31.630931853420673 ], [ -100.21435546902029, 31.656139373894074 ] ], [ [ -100.429547386311867, 31.54181470999858 ], [ -100.438980102324052, 31.526893616482365 ], [ -100.438980101927385, 31.526893616300821 ], [ -100.429547386311867, 31.54181470999858 ] ], [ [ -100.034056952705527, 31.407059273709336 ], [ -100.127220154539856, 31.429170608393303 ], [ -100.182678222039527, 31.442295073642171 ], [ -100.199286113117026, 31.445826510941238 ], [ -100.034056952705527, 31.407059273709336 ] ], [ [ -99.885658104821331, 31.362444852222485 ], [ -99.928077696807819, 31.372238159769211 ], [ -99.944297791173426, 31.375972747976039 ], [ -99.984758196596545, 31.390216615950305 ], [ -99.885658104821331, 31.362444852222485 ] ], [ [ -99.798995972847251, 31.34242248439238 ], [ -99.657346744085459, 31.29307433863411 ], [ -99.811694705690641, 31.345361064153309 ], [ -99.798995972847251, 31.34242248439238 ] ], [ [ -99.443931578898059, 31.104431153201084 ], [ -99.440083331018712, 31.117846658436029 ], [ -99.453352846340763, 31.071544090055646 ], [ -99.443931578898059, 31.104431153201084 ] ], [ [ -99.427426116727858, 30.9828884104992 ], [ -99.424453735603805, 30.97840499863219 ], [ -99.424453735995442, 30.978404999392591 ], [ -99.427426116727858, 30.9828884104992 ] ], [ [ -99.404037476465163, 30.938764573324569 ], [ -99.404037474911917, 30.938764573172701 ], [ -99.423412060717666, 30.976382471769881 ], [ -99.404037476465163, 30.938764573324569 ] ], [ [ -99.42757297912172, 30.675626036809167 ], [ -99.426834106683245, 30.701135635498531 ], [ -99.417114256839284, 30.761711120438218 ], [ -99.415573656028357, 30.771317661759646 ], [ -99.42757297912172, 30.675626036809167 ] ], [ [ -99.422462166475853, 30.57634666220066 ], [ -99.428840638150973, 30.632192611933796 ], [ -99.428032849640459, 30.659851410481867 ], [ -99.428840638523923, 30.632192611336581 ], [ -99.422462166475853, 30.57634666220066 ] ], [ [ -99.349494934930874, 30.502264022991568 ], [ -99.356943518678079, 30.509240459842232 ], [ -99.347848219277509, 30.501631099316967 ], [ -99.349494934930874, 30.502264022991568 ] ], [ [ -99.056182861553381, 30.417564392024016 ], [ -99.064276283320581, 30.418321292965697 ], [ -99.027786894629457, 30.417009528163344 ], [ -99.056182861553381, 30.417564392024016 ] ], [ [ -98.965240478582231, 30.415790558263517 ], [ -98.967537001392969, 30.415833852924465 ], [ -98.875743290050337, 30.412708122210635 ], [ -98.965240478582231, 30.415790558263517 ] ], [ [ -98.835296630632868, 30.411306381013283 ], [ -98.855785723812517, 30.412017879616599 ], [ -98.821859216450534, 30.408536330936506 ], [ -98.835296630632868, 30.411306381013283 ] ], [ [ -98.695152544170782, 30.378383046583149 ], [ -98.682563781167474, 30.374942778472459 ], [ -98.682563782567314, 30.374942779240911 ], [ -98.695152544170782, 30.378383046583149 ] ], [ [ -98.622688292746261, 30.342060090060691 ], [ -98.660483963222944, 30.362820072410777 ], [ -98.586100247755866, 30.31924450506801 ], [ -98.622688292746261, 30.342060090060691 ] ], [ [ -98.442943408996001, 30.275539367820048 ], [ -98.484191893937719, 30.284816742393591 ], [ -98.557167054196825, 30.301198958331049 ], [ -98.566087970837856, 30.306763164710933 ], [ -98.442943408996001, 30.275539367820048 ] ], [ [ -98.381919860203809, 30.270471573340416 ], [ -98.282774017616163, 30.275892430818342 ], [ -98.441917418971158, 30.275308608022662 ], [ -98.381919860203809, 30.270471573340416 ] ], [ [ -98.208763123036164, 30.296974182050537 ], [ -98.272291135525833, 30.278879196034907 ], [ -98.205038979055644, 30.299966145210501 ], [ -98.208763123036164, 30.296974182050537 ] ], [ [ -98.148185729644794, 30.34563636714428 ], [ -98.157722119209794, 30.337976184415641 ], [ -98.144973531006301, 30.348303766280516 ], [ -98.148185729644794, 30.34563636714428 ] ], [ [ -98.034298314778894, 30.442786193925158 ], [ -98.034271240609286, 30.442810057866463 ], [ -98.034271240623426, 30.442810057863674 ], [ -98.034298314778894, 30.442786193925158 ] ], [ [ -97.975006102481458, 30.454505921161104 ], [ -98.014528242018073, 30.446706301422854 ], [ -97.957275749206445, 30.447316114839314 ], [ -97.975006102481458, 30.454505921161104 ] ], [ [ -97.881889343267247, 30.416721344789281 ], [ -97.895852566724017, 30.422389449588824 ], [ -97.85528661664496, 30.396087942291473 ], [ -97.881889343267247, 30.416721344789281 ] ], [ [ -97.707826769007326, 30.291360429757944 ], [ -97.736427306674173, 30.311864853707917 ], [ -97.772949219569796, 30.336643219984595 ], [ -97.798033693971576, 30.353650392292632 ], [ -97.707826769007326, 30.291360429757944 ] ], [ [ -105.113594055429559, 35.544467925698626 ], [ -105.125662036717472, 35.540715839164868 ], [ -105.082837603489153, 35.554019348752121 ], [ -105.113594055429559, 35.544467925698626 ] ], [ [ -105.008682251194941, 35.569358826165967 ], [ -105.011680631171672, 35.569213428811423 ], [ -105.002529177016086, 35.56965518244283 ], [ -105.008682251194941, 35.569358826165967 ] ], [ [ -104.825164794558731, 35.529239654076626 ], [ -104.7483436730232, 35.552808065783339 ], [ -104.825164794230744, 35.529239654362947 ], [ -104.909511239119055, 35.54896575911296 ], [ -104.825164794558731, 35.529239654076626 ] ], [ [ -104.684378453101147, 35.554374960951712 ], [ -104.589523315407519, 35.558990478809697 ], [ -104.681716919419372, 35.554439544792508 ], [ -104.684378453101147, 35.554374960951712 ] ], [ [ -104.436813353505485, 35.592174528892116 ], [ -104.358036188586112, 35.615474575435975 ], [ -104.521769906470297, 35.571361502116858 ], [ -104.436813353505485, 35.592174528892116 ] ], [ [ -104.10280126197776, 35.713500695311247 ], [ -104.157989502038433, 35.693771362499042 ], [ -104.178688049483611, 35.684879302361288 ], [ -104.213835638134995, 35.669759135029025 ], [ -104.10280126197776, 35.713500695311247 ] ], [ [ -104.050811767266424, 35.732070923059844 ], [ -104.059351070810209, 35.729023033711414 ], [ -104.039536628618023, 35.737212195058653 ], [ -104.050811767266424, 35.732070923059844 ] ], [ [ -103.884147644720002, 35.807975769722276 ], [ -103.934762419426605, 35.784944125084493 ], [ -103.879292764761502, 35.810181186620397 ], [ -103.884147644720002, 35.807975769722276 ] ], [ [ -103.78871917704565, 35.853416443153797 ], [ -103.827218446003712, 35.835024873028274 ], [ -103.784619841601057, 35.855372301006071 ], [ -103.78871917704565, 35.853416443153797 ] ], [ [ -103.708572387361158, 35.889141082967534 ], [ -103.597228792246796, 35.952747334232654 ], [ -103.719421298197986, 35.88442617338702 ], [ -103.708572387361158, 35.889141082967534 ] ], [ [ -103.377131352512706, 36.037434853956704 ], [ -103.362167355334719, 36.088932034871803 ], [ -103.359390259143453, 36.098438263621354 ], [ -103.422471801077421, 36.05506852004202 ], [ -103.362167358581502, 36.088932037230521 ], [ -103.377131352512706, 36.037434853956704 ] ], [ [ -103.409172057462399, 35.913524626131426 ], [ -103.406603062266996, 35.924400722709635 ], [ -103.40954192770424, 35.911955144469253 ], [ -103.409172057462399, 35.913524626131426 ] ], [ [ -103.445587157457012, 35.793270112103798 ], [ -103.419240395816217, 35.719824328669318 ], [ -103.426406858288075, 35.739833828819528 ], [ -103.445587156155611, 35.793270111171957 ], [ -103.428653694697516, 35.847549549106404 ], [ -103.445587157457012, 35.793270112103798 ] ], [ [ -103.397146683809467, 35.658295382539592 ], [ -103.335487366872712, 35.600894930731933 ], [ -103.393249508798036, 35.654670713657545 ], [ -103.397146683809467, 35.658295382539592 ] ], [ [ -103.239044188126712, 35.577163697121897 ], [ -103.269489617644993, 35.584657119483595 ], [ -103.224923018563914, 35.57420621069874 ], [ -103.239044188126712, 35.577163697121897 ] ], [ [ -102.999320984883482, 35.517227171716719 ], [ -102.960696382230921, 35.471244590266338 ], [ -102.954765317948784, 35.489246366383696 ], [ -102.999320983273307, 35.517227172541332 ], [ -103.020835875137308, 35.530731202893278 ], [ -103.101165769252574, 35.548068999791226 ], [ -103.131746155756105, 35.554656978540699 ], [ -102.999320984883482, 35.517227171716719 ] ], [ [ -103.013758844038875, 35.371810938171109 ], [ -103.136589050853544, 35.240272521441142 ], [ -103.151252746563046, 35.225212096967034 ], [ -103.168460018671468, 35.207523113559951 ], [ -103.013758844038875, 35.371810938171109 ] ], [ [ -103.219970701909588, 35.155181881723628 ], [ -103.207973147385772, 35.167105254366547 ], [ -103.269767725760929, 35.105630194309022 ], [ -103.219970701909588, 35.155181881723628 ] ], [ [ -103.300392151497078, 35.075149535225137 ], [ -103.296193008333418, 35.079330772260072 ], [ -103.318122024558747, 35.060431767799265 ], [ -103.300392151497078, 35.075149535225137 ] ], [ [ -103.370277403475285, 35.017131804773825 ], [ -103.369121677275402, 35.01809244530704 ], [ -103.399004120050677, 35.002629411011291 ], [ -103.370277403475285, 35.017131804773825 ] ], [ [ -103.75400543137728, 34.876461028937349 ], [ -103.754005434788894, 34.876461026810823 ], [ -103.654761872490212, 34.919288598374408 ], [ -103.75400543137728, 34.876461028937349 ] ], [ [ -103.887611389212353, 34.838584898911151 ], [ -103.975949124013141, 34.799353390164832 ], [ -103.818129445849607, 34.858289325865783 ], [ -103.887611389212353, 34.838584898911151 ] ], [ [ -104.035346984580542, 34.744644162963127 ], [ -104.02506924472199, 34.763935274980589 ], [ -104.054097369916889, 34.709401349068152 ], [ -104.035346984580542, 34.744644162963127 ] ], [ [ -104.019607057250965, 34.540687463964233 ], [ -104.036483763088029, 34.573387146276218 ], [ -104.062644955610551, 34.624000551049036 ], [ -104.060825388194331, 34.646307498668271 ], [ -104.019607057250965, 34.540687463964233 ] ], [ [ -103.975730894951212, 34.446842190676925 ], [ -103.983636474930577, 34.464006652507067 ], [ -103.973143602784972, 34.432189131515102 ], [ -103.975730894951212, 34.446842190676925 ] ], [ [ -103.978446961728679, 34.269317627312432 ], [ -103.978446960880405, 34.269317626819031 ], [ -103.955311774427656, 34.318438325670101 ], [ -103.978446961728679, 34.269317627312432 ] ], [ [ -103.974624634934443, 34.058612826136617 ], [ -103.987297433937087, 34.095604248432217 ], [ -103.973878186112231, 34.057232078825173 ], [ -103.974624634934443, 34.058612826136617 ] ], [ [ -103.794525147226977, 33.862571715739449 ], [ -103.744115858309954, 33.775735855237095 ], [ -103.850658366008261, 33.922463671870865 ], [ -103.794525147226977, 33.862571715739449 ] ], [ [ -103.709838867856305, 33.643474578362472 ], [ -103.740240286137549, 33.519992302084297 ], [ -103.722274565500044, 33.710536620966586 ], [ -103.709838867856305, 33.643474578362472 ] ], [ [ -103.746911821799117, 33.507905511494506 ], [ -103.808845520383372, 33.327239989626605 ], [ -103.811108861921014, 33.317204147457886 ], [ -103.746911821799117, 33.507905511494506 ] ], [ [ -103.811218262285209, 33.316719057262695 ], [ -103.811218262739146, 33.316719055249905 ], [ -103.811300210186388, 33.301563834937539 ], [ -103.811218262285209, 33.316719057262695 ] ], [ [ -103.811851501030176, 33.201625823549357 ], [ -103.811801365829993, 33.210406975494649 ], [ -103.807426161866445, 33.153230153032766 ], [ -103.811851501030176, 33.201625823549357 ] ], [ [ -103.806316360966292, 33.141065457187068 ], [ -103.799232483485, 33.063289643622447 ], [ -103.799232482436238, 33.063289640285205 ], [ -103.806316360966292, 33.141065457187068 ] ], [ [ -103.797828674738724, 33.058822634290649 ], [ -103.799011758029067, 33.062587280665824 ], [ -103.789305910342449, 33.031575176647351 ], [ -103.797828674738724, 33.058822634290649 ] ], [ [ -103.625712847681356, 32.832214781495239 ], [ -103.708900448899769, 32.900280001177642 ], [ -103.711809903081999, 32.902659204695489 ], [ -103.7089004521563, 32.900279997461297 ], [ -103.625712847681356, 32.832214781495239 ] ], [ [ -103.531639356446064, 32.779796470784532 ], [ -103.415550232941996, 32.647510527834292 ], [ -103.408440827169557, 32.636495073373204 ], [ -103.531639356446064, 32.779796470784532 ] ], [ [ -103.36882019001655, 32.566871642598223 ], [ -103.369877489531618, 32.568785349427294 ], [ -103.367963533695388, 32.565318677481308 ], [ -103.36882019001655, 32.566871642598223 ] ], [ [ -103.343521115719241, 32.481117247780844 ], [ -103.345435209464242, 32.501435948565614 ], [ -103.342071454650764, 32.465716449457169 ], [ -103.343521115719241, 32.481117247780844 ] ], [ [ -103.333877560960261, 32.122131345178033 ], [ -103.334808304602944, 32.164252778125174 ], [ -103.333618382045429, 32.110180233395717 ], [ -103.333877560960261, 32.122131345178033 ] ], [ [ -103.311805723509735, 32.008300779287026 ], [ -103.314352201976533, 32.019457573944486 ], [ -103.301793216635232, 31.987752732582635 ], [ -103.311805723509735, 32.008300779287026 ] ], [ [ -103.272262574598244, 31.927135469859174 ], [ -103.274992784784956, 31.932741908323386 ], [ -103.251707051113371, 31.894973802157171 ], [ -103.272262574598244, 31.927135469859174 ] ], [ [ -103.152603148737938, 31.745946883607498 ], [ -103.165975039420715, 31.765749497884542 ], [ -103.144570519646081, 31.737217980790284 ], [ -103.152603148737938, 31.745946883607498 ] ], [ [ -102.942357967861213, 31.455665076905625 ], [ -102.89897918542168, 31.414747235617824 ], [ -102.939880373432146, 31.452251436494901 ], [ -102.942357967861213, 31.455665076905625 ] ], [ [ -102.834243773863278, 31.344236376049704 ], [ -102.863225317257047, 31.379784913580906 ], [ -102.8233984861576, 31.330920552734469 ], [ -102.834243773863278, 31.344236376049704 ] ], [ [ -102.784179809348842, 37.563639901610529 ], [ -102.985237121530091, 37.443458557174552 ], [ -103.003259622023052, 37.424328399495231 ], [ -102.784179809348842, 37.563639901610529 ] ], [ [ -103.045054076801748, 37.379949593954471 ], [ -103.059593201027752, 37.364498138038428 ], [ -103.08236179645553, 37.340129391543499 ], [ -103.059593198983279, 37.364498136222373 ], [ -103.045054076801748, 37.379949593954471 ] ], [ [ -102.962026446508276, 37.157242451741631 ], [ -103.043930054423029, 37.194202424389154 ], [ -103.069621217197664, 37.214870448408959 ], [ -102.962026446508276, 37.157242451741631 ] ], [ [ -102.727370451848884, 37.099833840997135 ], [ -102.803825377636898, 37.117538454322371 ], [ -102.829307556744297, 37.123428345138777 ], [ -102.912963868200478, 37.139350893803154 ], [ -102.924974688781703, 37.14163210326987 ], [ -102.727370451848884, 37.099833840997135 ] ], [ [ -102.695068359006029, 37.09505844202652 ], [ -102.69506835959487, 37.095058441638791 ], [ -102.67806480263603, 37.092893306049262 ], [ -102.695068359006029, 37.09505844202652 ] ], [ [ -102.604827881005775, 37.055557252205816 ], [ -102.604827880187131, 37.055557251142808 ], [ -102.604710527856767, 37.055410076237145 ], [ -102.604827881005775, 37.055557252205816 ] ], [ [ -102.596511840993017, 37.045127866588537 ], [ -102.599594116799537, 36.977802277824601 ], [ -102.599594116270012, 36.977802278300459 ], [ -102.596511840993017, 37.045127866588537 ] ], [ [ -102.776306152149786, 36.8538703925581 ], [ -102.776306153033829, 36.853870392171338 ], [ -102.776544110573724, 36.853746413013226 ], [ -102.776306152149786, 36.8538703925581 ] ], [ [ -102.876449582878763, 36.813625336762662 ], [ -102.876449584795083, 36.813625336183378 ], [ -102.890924536701064, 36.806467774675767 ], [ -102.876449582878763, 36.813625336762662 ] ], [ [ -103.075545122893359, 36.702604469750511 ], [ -102.979835512767096, 36.762500761072246 ], [ -102.977756478307086, 36.763529419818781 ], [ -103.075545122893359, 36.702604469750511 ] ], [ [ -103.209564208785409, 36.560413360952339 ], [ -103.209564209157676, 36.560413358064167 ], [ -103.204092672817026, 36.567280566621356 ], [ -103.209564208785409, 36.560413360952339 ] ], [ [ -103.240893150858511, 36.308957290974419 ], [ -103.228660582971145, 36.37553787402431 ], [ -103.228586782924424, 36.377551357137939 ], [ -103.240893150858511, 36.308957290974419 ] ], [ [ -103.254713076100742, 36.27141104431923 ], [ -103.268951415876813, 36.232727051215655 ], [ -103.273938429578294, 36.223757266176605 ], [ -103.268951413435516, 36.232727053609324 ], [ -103.254713076100742, 36.27141104431923 ] ], [ [ -103.351373859483743, 36.108905286301137 ], [ -103.301925658115479, 36.173435208374997 ], [ -103.277515529305347, 36.217324901765444 ], [ -103.351373859483743, 36.108905286301137 ] ], [ [ -104.517082212216138, 44.826946260028322 ], [ -104.517954326942828, 44.826460424303313 ], [ -104.497617286573487, 44.837778522294577 ], [ -104.517082212216138, 44.826946260028322 ] ], [ [ -104.322463991763058, 44.892932891572244 ], [ -104.415824891475154, 44.879589084596262 ], [ -104.424789427056041, 44.878307342648959 ], [ -104.415824890256758, 44.879589080871405 ], [ -104.322463991763058, 44.892932891572244 ] ], [ [ -104.283089471845784, 44.879815507834572 ], [ -104.05461120590239, 44.740303039420532 ], [ -103.99110704445593, 44.699334818224614 ], [ -104.283089471845784, 44.879815507834572 ] ], [ [ -103.825209287196969, 44.6422818316031 ], [ -103.680591289031227, 44.641761981349802 ], [ -103.682220458921165, 44.64442443927156 ], [ -103.825209287196969, 44.6422818316031 ] ], [ [ -103.584884645264296, 44.541347505728609 ], [ -103.595930983192602, 44.548310143977297 ], [ -103.560174426175905, 44.529781018895129 ], [ -103.584884645264296, 44.541347505728609 ] ], [ [ -103.466239926796774, 44.48576736453915 ], [ -103.47835563709441, 44.491450442647071 ], [ -103.438924115029636, 44.469476380001971 ], [ -103.466239926796774, 44.48576736453915 ] ], [ [ -103.334075926005013, 44.406837466090131 ], [ -103.393313254848763, 44.442249236755174 ], [ -103.327870270648617, 44.398450289010697 ], [ -103.334075926005013, 44.406837466090131 ] ], [ [ -103.216163633641813, 44.247016908060608 ], [ -103.238715762544544, 44.277644767700949 ], [ -103.214295155168514, 44.237553319199336 ], [ -103.216163633641813, 44.247016908060608 ] ], [ [ -103.193320677558532, 44.079375965031232 ], [ -103.187469479080789, 44.101440431076533 ], [ -103.195404052204125, 44.141799928141076 ], [ -103.203168748565886, 44.181159192540569 ], [ -103.193320677558532, 44.079375965031232 ] ], [ [ -103.276955408274546, 43.841853914665407 ], [ -103.227424618588174, 43.950538636632928 ], [ -103.225419931298774, 43.958115417474403 ], [ -103.22742462168469, 43.95053863495405 ], [ -103.276955408274546, 43.841853914665407 ] ], [ [ -103.311527567009961, 43.680740332941944 ], [ -103.307106015394012, 43.70392990363051 ], [ -103.284901669824663, 43.820108600617637 ], [ -103.307106018252853, 43.703929901188665 ], [ -103.311527567009961, 43.680740332941944 ] ], [ [ -103.32550048849221, 43.525085449315291 ], [ -103.329394484384238, 43.47826815206416 ], [ -103.316258220569807, 43.645922741158813 ], [ -103.32550048849221, 43.525085449315291 ] ], [ [ -103.497896329108428, 43.281098856392347 ], [ -103.428176879204543, 43.272800444234832 ], [ -103.382354733837232, 43.315032960962029 ], [ -103.375710005824487, 43.335533436500448 ], [ -103.428176879511724, 43.272800445243341 ], [ -103.497896329108428, 43.281098856392347 ] ], [ [ -103.601839898609143, 43.276467850505227 ], [ -103.624511717164509, 43.272438049674811 ], [ -103.624511716224518, 43.272438048668945 ], [ -103.601839898609143, 43.276467850505227 ] ], [ [ -103.728700676849115, 43.393934174356282 ], [ -103.748825073388559, 43.420269012660057 ], [ -103.748825075403659, 43.420269013053854 ], [ -103.728700676849115, 43.393934174356282 ] ], [ [ -103.861724854809353, 43.442310336118098 ], [ -103.86789136883732, 43.456696273898757 ], [ -103.861724856560116, 43.442310336459599 ], [ -103.861724854809353, 43.442310336118098 ] ], [ [ -103.931090216947439, 43.589745267779591 ], [ -103.937553405835942, 43.602439880271525 ], [ -103.937553406931613, 43.602439881275103 ], [ -103.931090216947439, 43.589745267779591 ] ], [ [ -104.02436065709756, 43.681884765646096 ], [ -104.091688377024994, 43.765173725176588 ], [ -103.954314768370637, 43.617792308825607 ], [ -104.02436065709756, 43.681884765646096 ] ], [ [ -104.169326782159303, 43.8551559446121 ], [ -104.16932678209092, 43.855155941545554 ], [ -104.098112911794729, 43.7728328826528 ], [ -104.169326782159303, 43.8551559446121 ] ], [ [ -104.237411498020137, 43.884429929011993 ], [ -104.214987199034752, 43.874792018488094 ], [ -104.266345828410707, 43.906681084168952 ], [ -104.237411498020137, 43.884429929011993 ] ], [ [ -104.365936280797385, 44.023326875124965 ], [ -104.36386600890782, 44.020501579952096 ], [ -104.381617943610806, 44.056502239994849 ], [ -104.365936280797385, 44.023326875124965 ] ], [ [ -104.474284450643907, 44.151125320045082 ], [ -104.411445619973207, 44.119529722606629 ], [ -104.397600365751217, 44.090298829673635 ], [ -104.411445617380636, 44.119529724308762 ], [ -104.474284450643907, 44.151125320045082 ] ], [ [ -104.55806855511257, 44.22998292883792 ], [ -104.53870391562883, 44.205539699587078 ], [ -104.520708965824184, 44.18830989061901 ], [ -104.538703918487414, 44.205539703618051 ], [ -104.55806855511257, 44.22998292883792 ] ], [ [ -104.680229189658121, 44.369377133552661 ], [ -104.644824315543104, 44.332223274246182 ], [ -104.707229376101196, 44.397653938969491 ], [ -104.680229189658121, 44.369377133552661 ] ], [ [ -104.796768188604986, 44.546394348010331 ], [ -104.756256103479217, 44.599895477282274 ], [ -104.726548763062297, 44.639060280657958 ], [ -104.756256106093787, 44.59989548066148 ], [ -104.7967681887678, 44.54639435160481 ], [ -104.800590517103103, 44.474174501148802 ], [ -104.793656103524782, 44.468541763333391 ], [ -104.796768188604986, 44.546394348010331 ] ], [ [ -104.696929933168462, 44.678928375345571 ], [ -104.708182815138514, 44.663694728639072 ], [ -104.675986382842751, 44.707238767930548 ], [ -104.696929933168462, 44.678928375345571 ] ], [ [ -104.633819576412847, 44.755779269251235 ], [ -104.640809644479972, 44.751428870776529 ], [ -104.616889520364779, 44.766303798443431 ], [ -104.633819576412847, 44.755779269251235 ] ], [ [ -112.333830111497676, 47.902551957129212 ], [ -112.372001649804858, 47.902168277497942 ], [ -112.505729673987133, 47.900699616594267 ], [ -112.514122011745783, 47.900604249936059 ], [ -112.577890207641516, 47.899981303169199 ], [ -112.514122009473567, 47.900604244491745 ], [ -112.333830111497676, 47.902551957129212 ] ], [ [ -112.238479612176704, 47.900897980520433 ], [ -112.238479616083026, 47.900897978430727 ], [ -112.144967987272594, 47.893186549369837 ], [ -112.238479612176704, 47.900897980520433 ] ], [ [ -111.828704833386126, 47.833862304694158 ], [ -111.534500121691977, 47.728725431270917 ], [ -111.414273304128429, 47.624710076337806 ], [ -111.534500118132954, 47.728725435874829 ], [ -111.828704837945097, 47.833862307646342 ], [ -111.849914548752366, 47.838611603941466 ], [ -111.974098204667712, 47.866340641123465 ], [ -112.106353760623236, 47.887924195935639 ], [ -112.126642412074332, 47.891221177424725 ], [ -111.828704833386126, 47.833862304694158 ] ], [ [ -111.321273807526708, 47.583793641223757 ], [ -111.321273803457743, 47.583793638922316 ], [ -111.318095614192003, 47.582571714313993 ], [ -111.321273807526708, 47.583793641223757 ] ], [ [ -110.976409910476491, 47.560741425498577 ], [ -110.976409910319916, 47.5607414255701 ], [ -110.98116216925996, 47.560914158580559 ], [ -110.976409910476491, 47.560741425498577 ] ], [ [ -110.605445860254122, 47.718364712092217 ], [ -110.513290401818665, 47.675514218666954 ], [ -110.501029707864532, 47.669290687427115 ], [ -110.513290403677146, 47.675514224881482 ], [ -110.605445860254122, 47.718364712092217 ] ], [ [ -110.424696483275468, 47.632293106835149 ], [ -110.387603756914146, 47.61643219030622 ], [ -110.364877633899141, 47.606692099211465 ], [ -110.387603757096088, 47.616432193560122 ], [ -110.424696483275468, 47.632293106835149 ] ], [ [ -110.269073489040025, 47.582435608197784 ], [ -110.269073487140517, 47.582435608024454 ], [ -110.215393344886266, 47.580779214312678 ], [ -110.269073489040025, 47.582435608197784 ] ], [ [ -109.839018425541227, 47.8234811824682 ], [ -109.878189087416061, 47.759262082480298 ], [ -109.878305091660636, 47.759076049463069 ], [ -109.839018425541227, 47.8234811824682 ] ], [ [ -109.79292367410406, 47.956127894482478 ], [ -109.791557311827788, 47.987396236950914 ], [ -109.794639810701653, 48.005106300168194 ], [ -109.791557314296313, 47.98739624191505 ], [ -109.79292367410406, 47.956127894482478 ] ], [ [ -109.812454225976666, 48.104019168825126 ], [ -109.81245422410872, 48.104019167632593 ], [ -109.815994277421225, 48.121766763707605 ], [ -109.812454225976666, 48.104019168825126 ] ], [ [ -109.795074461354716, 48.299571989173856 ], [ -109.630842028515232, 48.345440419965243 ], [ -109.647315978081949, 48.34158706864909 ], [ -109.698951723580606, 48.326923367405222 ], [ -109.795074466662655, 48.299571989533 ], [ -109.799781802585983, 48.279911045068111 ], [ -109.806236211490543, 48.252917707452731 ], [ -109.795074461354716, 48.299571989173856 ] ], [ [ -109.271599296835404, 48.315337966014937 ], [ -109.402908322146587, 48.368206027712823 ], [ -109.429003431628317, 48.369004434891266 ], [ -109.271599296835404, 48.315337966014937 ] ], [ [ -109.092443942294295, 48.223747656495938 ], [ -109.069793704715011, 48.208148953265038 ], [ -109.028297566860047, 48.178761928751243 ], [ -109.069793702476503, 48.208148959746332 ], [ -109.092443942294295, 48.223747656495938 ] ], [ [ -108.805192160081845, 48.037247896749584 ], [ -108.858421326729825, 48.061920168965443 ], [ -108.917100814203863, 48.102069483452986 ], [ -108.805192160081845, 48.037247896749584 ] ], [ [ -108.4554444323079, 47.955299369534444 ], [ -108.547874450892991, 47.950992582304643 ], [ -108.70012721527057, 47.995973206219205 ], [ -108.547874449176604, 47.950992581578646 ], [ -108.4554444323079, 47.955299369534444 ] ], [ [ -108.23162488946366, 47.957565096708962 ], [ -108.318061828695591, 47.96503829994078 ], [ -108.348785553711295, 47.962674527151371 ], [ -108.23162488946366, 47.957565096708962 ] ], [ [ -108.15535800264685, 47.930649931055633 ], [ -108.125724795200071, 47.877162935866508 ], [ -108.09930183592661, 47.829339925948787 ], [ -108.125724791178129, 47.877162936977633 ], [ -108.15535800264685, 47.930649931055633 ] ], [ [ -108.165458679881638, 47.756603243334489 ], [ -108.166313169762347, 47.717227934821651 ], [ -108.165458677161539, 47.756603238019643 ], [ -108.111465668789805, 47.80765956348997 ], [ -108.165458679881638, 47.756603243334489 ] ], [ [ -108.103286743765139, 47.647396090456901 ], [ -108.106564540343584, 47.648043584446945 ], [ -108.015991212489851, 47.630146027786225 ], [ -108.103286743765139, 47.647396090456901 ] ], [ [ -107.705153844531878, 47.634160426328521 ], [ -107.84175872933811, 47.627212521060684 ], [ -107.850988491371993, 47.626735135010691 ], [ -107.841758725895247, 47.627212521095963 ], [ -107.709075926441869, 47.633960721183406 ], [ -107.705153844531878, 47.634160426328521 ] ], [ [ -107.425346378226138, 47.669384003731146 ], [ -107.425346374318522, 47.669384003579374 ], [ -107.421335137455088, 47.669314882529456 ], [ -107.425346378226138, 47.669384003731146 ] ], [ [ -107.182060238341847, 47.663558959079808 ], [ -107.18206024324229, 47.66355895971072 ], [ -107.168682615114875, 47.659597981719358 ], [ -107.182060238341847, 47.663558959079808 ] ], [ [ -107.008917691981864, 47.612227436568894 ], [ -106.979377746205756, 47.60344314392357 ], [ -106.944566473231092, 47.587734916188602 ], [ -106.979377746243088, 47.603443147755833 ], [ -107.008917691981864, 47.612227436568894 ] ], [ [ -106.6366119376098, 47.429496763439346 ], [ -106.636611937751454, 47.429496765707569 ], [ -106.728469848439175, 47.481327059827521 ], [ -106.806983945842077, 47.525478366454749 ], [ -106.815319925571174, 47.529258164927263 ], [ -106.6366119376098, 47.429496763439346 ] ], [ [ -106.491325375619837, 47.426986694191534 ], [ -106.491325377078425, 47.426986694113772 ], [ -106.406904219271226, 47.425424680506531 ], [ -106.491325375619837, 47.426986694191534 ] ], [ [ -106.226837155538021, 47.43316650632341 ], [ -106.2268371549129, 47.433166506165186 ], [ -106.144589913758153, 47.43805125565882 ], [ -106.226837155538021, 47.43316650632341 ] ], [ [ -106.093536834750068, 47.441082796949431 ], [ -106.056015011267831, 47.443294524936334 ], [ -106.000577927209775, 47.450807243065263 ], [ -106.056015013308652, 47.443294528436006 ], [ -106.093536834750068, 47.441082796949431 ] ], [ [ -105.633313737610635, 47.50370976163974 ], [ -105.704643249894517, 47.492904666319419 ], [ -105.830421447828911, 47.47373580838326 ], [ -105.892518963511222, 47.465379393266858 ], [ -105.633313737610635, 47.50370976163974 ] ], [ [ -105.44186401229571, 47.506237033726819 ], [ -105.438426521511687, 47.506432521374634 ], [ -105.441864013868823, 47.506237033754765 ], [ -105.44186401229571, 47.506237033726819 ] ], [ [ -104.99451870926417, 47.531045189431175 ], [ -104.954780578864728, 47.533176419626493 ], [ -104.923420873647302, 47.524490132228642 ], [ -104.954780580174472, 47.53317642249003 ], [ -104.99451870926417, 47.531045189431175 ] ], [ [ -104.756271361134893, 47.47801590199709 ], [ -104.756271360860012, 47.478015898349874 ], [ -104.708552331859309, 47.463436636417939 ], [ -104.756271361134893, 47.47801590199709 ] ], [ [ -104.402401821570948, 47.397391376396108 ], [ -104.54833221701098, 47.419929505611421 ], [ -104.549199160700411, 47.42006273480586 ], [ -104.402401821570948, 47.397391376396108 ] ], [ [ -103.818777876682361, 47.520960678186889 ], [ -103.842491149516107, 47.518760684135671 ], [ -103.921165465778259, 47.503326419016389 ], [ -104.048561097560963, 47.478218081228121 ], [ -104.071524983021362, 47.473670127981372 ], [ -103.818777876682361, 47.520960678186889 ] ], [ [ -103.299774172504314, 47.567573549568593 ], [ -103.135559753251371, 47.549226612567075 ], [ -103.299774168215336, 47.567573551009566 ], [ -103.397140501140782, 47.559043886220898 ], [ -103.528869632823728, 47.547378543680537 ], [ -103.649971009291988, 47.536529540692257 ], [ -103.652705306537669, 47.536278994728477 ], [ -103.299774172504314, 47.567573549568593 ] ], [ [ -102.924377439907559, 47.525272371214491 ], [ -102.737808665830059, 47.468180740815555 ], [ -103.132822504461146, 47.548918397534386 ], [ -102.924377439907559, 47.525272371214491 ] ], [ [ -102.528366091688909, 47.382301332407948 ], [ -102.299004038984208, 47.276032054370511 ], [ -102.641346475105436, 47.434307714078308 ], [ -102.528366091688909, 47.382301332407948 ] ], [ [ -102.147955740015774, 47.18133715126551 ], [ -102.120429994046489, 47.158500668264679 ], [ -102.088493779554341, 47.131910027663771 ], [ -102.120429996140317, 47.158500673147458 ], [ -102.147955740015774, 47.18133715126551 ] ], [ [ -101.964400713082199, 47.036622719424884 ], [ -101.738822939333019, 46.914043426230556 ], [ -101.841552736856457, 46.969993595105095 ], [ -101.944496151543731, 47.02585220464448 ], [ -101.964400713082199, 47.036622719424884 ] ], [ [ -101.43419647546159, 46.7245941128295 ], [ -101.283379866983012, 46.644573551588223 ], [ -101.597118922464247, 46.830530160913113 ], [ -101.43419647546159, 46.7245941128295 ] ], [ [ -101.215019222469152, 46.608200071012178 ], [ -101.215019227384857, 46.608200071946172 ], [ -101.187799832459575, 46.594439542489567 ], [ -101.215019222469152, 46.608200071012178 ] ], [ [ -101.102183263307836, 46.551101480227928 ], [ -101.032226562427894, 46.515624997609635 ], [ -101.015669354228663, 46.507207594017466 ], [ -101.032226561200417, 46.515625002735447 ], [ -101.102183263307836, 46.551101480227928 ] ], [ [ -100.716629029529969, 46.267398834378547 ], [ -100.648603572284117, 46.192513356535095 ], [ -100.896926051783026, 46.413006443928289 ], [ -100.716629029529969, 46.267398834378547 ] ], [ [ -100.497416845874909, 46.028857337008731 ], [ -100.556739809376836, 46.091064453467645 ], [ -100.569968913178059, 46.10568624828548 ], [ -100.497416845874909, 46.028857337008731 ] ], [ [ -100.399732377894551, 45.913475052469046 ], [ -100.371414185852217, 45.856536864983987 ], [ -100.363228371180057, 45.840018373463252 ], [ -100.371414184762827, 45.856536864737173 ], [ -100.399732377894551, 45.913475052469046 ] ], [ [ -100.280320738891149, 45.559876636484773 ], [ -100.294174191660488, 45.594924929566545 ], [ -100.308372497546131, 45.630786895703068 ], [ -100.311470030230907, 45.683429714070229 ], [ -100.313334541934694, 45.715105939924577 ], [ -100.280320738891149, 45.559876636484773 ] ], [ [ -100.209350585705451, 45.134662625039653 ], [ -100.241653440664692, 45.076530454157272 ], [ -100.272299207973475, 45.021251158195284 ], [ -100.241653439103843, 45.076530452977316 ], [ -100.209350585705451, 45.134662625039653 ] ], [ [ -100.47099304212098, 44.756782531965662 ], [ -100.409584043184353, 44.835269928690082 ], [ -100.324061484067386, 44.942430770367679 ], [ -100.409584047165794, 44.835269928353156 ], [ -100.47099304212098, 44.756782531965662 ] ], [ [ -100.474412543060623, 44.747281514166232 ], [ -100.502334596850574, 44.669700623054439 ], [ -100.505086672719969, 44.662037465953901 ], [ -100.502334591539807, 44.669700623180987 ], [ -100.474412543060623, 44.747281514166232 ] ], [ [ -100.375747869227837, 44.42607180413524 ], [ -100.456031796181961, 44.500137332014496 ], [ -100.467132248079125, 44.510350179048906 ], [ -100.375747869227837, 44.42607180413524 ] ], [ [ -100.157684325749614, 44.348850253134628 ], [ -100.157684323722592, 44.34885025181017 ], [ -100.150079703417148, 44.346426961997111 ], [ -100.157684325749614, 44.348850253134628 ] ], [ [ -99.766227584039044, 44.210131599179583 ], [ -99.897377017318547, 44.247428897655624 ], [ -99.929000893809388, 44.260992891936809 ], [ -99.766227584039044, 44.210131599179583 ] ], [ [ -99.491919539262526, 44.10189312855055 ], [ -99.596801760039938, 44.152496338130547 ], [ -99.602029904461844, 44.155012577962175 ], [ -99.491919539262526, 44.10189312855055 ] ], [ [ -99.277139391582281, 43.878520197790323 ], [ -99.326126097216502, 43.973197937398922 ], [ -99.343116759954583, 44.005970001898049 ], [ -99.277139391582281, 43.878520197790323 ] ], [ [ -99.268937591821555, 43.857642295721085 ], [ -99.248146057506702, 43.802520751950169 ], [ -99.233211346992775, 43.762806572633259 ], [ -99.248146054695923, 43.802520752809301 ], [ -99.268937591821555, 43.857642295721085 ] ], [ [ -99.077976374051545, 43.491092149000359 ], [ -99.113044736268193, 43.532234195210258 ], [ -99.122680663870256, 43.549011232136017 ], [ -99.170417782387929, 43.632034301536088 ], [ -99.189266571829179, 43.664719487828705 ], [ -99.077976374051545, 43.491092149000359 ] ], [ [ -99.009788513715947, 43.410945891990977 ], [ -99.009259966349603, 43.410555570157342 ], [ -99.009788514171163, 43.410945892526364 ], [ -99.009788513715947, 43.410945891990977 ] ], [ [ -98.904785154425795, 43.333293918556301 ], [ -98.904785153649669, 43.333293917943529 ], [ -98.904383952599048, 43.332996375918981 ], [ -98.904785154425795, 43.333293918556301 ] ], [ [ -98.648781679769812, 43.164451186663612 ], [ -98.673439027105502, 43.182884216124677 ], [ -98.722129820187078, 43.212821963628585 ], [ -98.816444396104416, 43.270660397124736 ], [ -98.821785908779148, 43.273930449237085 ], [ -98.648781679769812, 43.164451186663612 ] ], [ [ -98.427765700437973, 42.987232081851168 ], [ -98.465476991152343, 43.019565581309287 ], [ -98.537155147748734, 43.080841061733068 ], [ -98.545989989036386, 43.08746719269881 ], [ -98.617329131581599, 43.14091451970922 ], [ -98.427765700437973, 42.987232081851168 ] ], [ [ -98.178191787420005, 42.854606751113309 ], [ -98.134628297600216, 42.85206985539994 ], [ -98.098680310992478, 42.840283428474216 ], [ -98.134628295413648, 42.852069858129838 ], [ -98.178191787420005, 42.854606751113309 ] ] ] } }
]
}
